[{"OBJECT_NAME":"STARLINK-33833","OBJECT_ID":"2025-071F","EPOCH":"2026-03-09T11:08:01.479264","MEAN_MOTION":15.30182583,"ECCENTRICITY":0.00016721,"INCLINATION":53.159,"RA_OF_ASC_NODE":141.094,"ARG_OF_PERICENTER":60.2322,"MEAN_ANOMALY":299.8845,"EPHEMERIS_TYPE":0,"CLASSIFICATION_TYPE":"U","NORAD_CAT_ID":63498,"ELEMENT_SET_NO":999,"REV_AT_EPOCH":5273,"BSTAR":0.0003050149,"MEAN_MOTION_DOT":8.68e-5,"MEAN_MOTION_DDOT":0},{"OBJECT_NAME":"KUIPER-00213","OBJECT_ID":"2026-030P","EPOCH":"2026-03-09T22:00:01.999584","MEAN_MOTION":15.32626943,"ECCENTRICITY":0.00152813,"INCLINATION":51.8816,"RA_OF_ASC_NODE":218.5142,"ARG_OF_PERICENTER":64.2462,"MEAN_ANOMALY":206.8369,"EPHEMERIS_TYPE":0,"CLASSIFICATION_TYPE":"U","NORAD_CAT_ID":67777,"ELEMENT_SET_NO":999,"REV_AT_EPOCH":502,"BSTAR":0.0016072376,"MEAN_MOTION_DOT":0.00051551,"MEAN_MOTION_DDOT":0}]
